ORBCOMM FM05            
1 25117U 97084F   25160.96207596  .00000984  00000+0  31446-3 0  9993
2 25117  45.0161  42.7443 0001431 164.1314 195.9583 14.45924690439569
ORBCOMM FM06            
1 25118U 97084G   25160.89796912  .00001143  00000+0  35779-3 0  9992
2 25118  45.0154  42.7981 0000487 135.4265 289.0980 14.46058432440476
ORBCOMM FM07            
1 25119U 97084H   25160.89897349  .00000969  00000+0  30935-3 0  9993
2 25119  45.0150  43.5618 0002281 160.0621 200.0320 14.46053865440468
ORBCOMM FM03            
1 25158U 98007B   25160.73280469  .00000766  00000+0  31450-3 0  9992
2 25158 107.9651 120.2851 0046551 262.9908  96.5936 14.34493660422970
ORBCOMM FM04            
1 25159U 98007C   25160.64857347  .00000726  00000+0  29968-3 0  9995
2 25159 107.9639 123.3283 0042306 260.6915  98.9440 14.34742940423141
ORBCOMM FM17            
1 25413U 98046A   25160.81046027  .00000533  00000+0  23435-3 0  9994
2 25413  44.9950 292.4203 0004042 184.4622 175.6189 14.35086282402289
ORBCOMM FM18            
1 25414U 98046B   25160.50250359  .00000694  00000+0  27085-3 0  9999
2 25414  44.9916 211.4769 0007016 248.2359 111.7742 14.38542882403148
ORBCOMM FM19            
1 25415U 98046C   25160.54738981  .00000671  00000+0  26457-3 0  9993
2 25415  44.9928 213.2510 0005751 245.0019 268.6584 14.38351269403107
